CCSDS_OMM_VERS = 2.0
CREATION_DATE  = 
ORIGINATOR     = 

OBJECT_NAME    = IDEFIX & ARIANE 42P R/B
OBJECT_ID      = 2002-021B
CENTER_NAME    = EARTH
REF_FRAME      = TEME
TIME_SYSTEM    = UTC
MEAN_ELEMENT_THEORY = SGP/SGP4

EPOCH          = 2026-02-28T19:49:06.139200
MEAN_MOTION    = 14.31018644
ECCENTRICITY   = .00110773
INCLINATION    = 98.5860
RA_OF_ASC_NODE = 358.5385
ARG_OF_PERICENTER = 209.2581
MEAN_ANOMALY   = 150.7983

EPHEMERIS_TYPE = 0
CLASSIFICATION_TYPE = U
NORAD_CAT_ID   = 27422
ELEMENT_SET_NO = 999
REV_AT_EPOCH   = 24275
BSTAR          = .12595445E-3
MEAN_MOTION_DOT = .288E-5
MEAN_MOTION_DDOT = 0

CCSDS_OMM_VERS = 2.0
CREATION_DATE  = 
ORIGINATOR     = 

OBJECT_NAME    = AQUA
OBJECT_ID      = 2002-022A
CENTER_NAME    = EARTH
REF_FRAME      = TEME
TIME_SYSTEM    = UTC
MEAN_ELEMENT_THEORY = SGP/SGP4

EPOCH          = 2026-02-28T22:11:44.899872
MEAN_MOTION    = 14.61951394
ECCENTRICITY   = .00007476
INCLINATION    = 98.4157
RA_OF_ASC_NODE = 27.1312
ARG_OF_PERICENTER = 51.8434
MEAN_ANOMALY   = 13.4061

EPHEMERIS_TYPE = 0
CLASSIFICATION_TYPE = U
NORAD_CAT_ID   = 27424
ELEMENT_SET_NO = 999
REV_AT_EPOCH   = 26745
BSTAR          = .24502822E-3
MEAN_MOTION_DOT = .1178E-4
MEAN_MOTION_DDOT = 0

CCSDS_OMM_VERS = 2.0
CREATION_DATE  = 
ORIGINATOR     = 

OBJECT_NAME    = CZ-4B R/B
OBJECT_ID      = 2002-024C
CENTER_NAME    = EARTH
REF_FRAME      = TEME
TIME_SYSTEM    = UTC
MEAN_ELEMENT_THEORY = SGP/SGP4

EPOCH          = 2026-02-28T17:53:12.686208
MEAN_MOTION    = 14.14545799
ECCENTRICITY   = .00508737
INCLINATION    = 98.8860
RA_OF_ASC_NODE = 113.1962
ARG_OF_PERICENTER = 49.3446
MEAN_ANOMALY   = 59.8861

EPHEMERIS_TYPE = 0
CLASSIFICATION_TYPE = U
NORAD_CAT_ID   = 27432
ELEMENT_SET_NO = 999
REV_AT_EPOCH   = 22797
BSTAR          = .42597808E-4
MEAN_MOTION_DOT = .39E-6
MEAN_MOTION_DDOT = 0

CCSDS_OMM_VERS = 2.0
CREATION_DATE  = 
ORIGINATOR     = 

OBJECT_NAME    = MIDORI II (ADEOS-II)
OBJECT_ID      = 2002-056A
CENTER_NAME    = EARTH
REF_FRAME      = TEME
TIME_SYSTEM    = UTC
MEAN_ELEMENT_THEORY = SGP/SGP4

EPOCH          = 2026-02-28T20:14:01.563360
MEAN_MOTION    = 14.29276912
ECCENTRICITY   = .00018871
INCLINATION    = 98.7752
RA_OF_ASC_NODE = 18.2605
ARG_OF_PERICENTER = 55.6507
MEAN_ANOMALY   = 304.4852

EPHEMERIS_TYPE = 0
CLASSIFICATION_TYPE = U
NORAD_CAT_ID   = 27597
ELEMENT_SET_NO = 999
REV_AT_EPOCH   = 20903
BSTAR          = .13650049E-3
MEAN_MOTION_DOT = .302E-5
MEAN_MOTION_DDOT = 0

CCSDS_OMM_VERS = 2.0
CREATION_DATE  = 
ORIGINATOR     = 

OBJECT_NAME    = H-2A R/B
OBJECT_ID      = 2002-056E
CENTER_NAME    = EARTH
REF_FRAME      = TEME
TIME_SYSTEM    = UTC
MEAN_ELEMENT_THEORY = SGP/SGP4

EPOCH          = 2026-02-28T21:58:20.703360
MEAN_MOTION    = 14.33753840
ECCENTRICITY   = .00699492
INCLINATION    = 98.3185
RA_OF_ASC_NODE = 20.6160
ARG_OF_PERICENTER = 186.7938
MEAN_ANOMALY   = 241.3463

EPHEMERIS_TYPE = 0
CLASSIFICATION_TYPE = U
NORAD_CAT_ID   = 27601
ELEMENT_SET_NO = 999
REV_AT_EPOCH   = 21285
BSTAR          = .11679816E-3
MEAN_MOTION_DOT = .292E-5
MEAN_MOTION_DDOT = 0

CCSDS_OMM_VERS = 2.0
CREATION_DATE  = 
ORIGINATOR     = 

OBJECT_NAME    = CZ-4B R/B
OBJECT_ID      = 2003-049C
CENTER_NAME    = EARTH
REF_FRAME      = TEME
TIME_SYSTEM    = UTC
MEAN_ELEMENT_THEORY = SGP/SGP4

EPOCH          = 2026-02-28T22:12:04.612896
MEAN_MOTION    = 14.55009883
ECCENTRICITY   = .0047001
INCLINATION    = 98.6869
RA_OF_ASC_NODE = 54.4866
ARG_OF_PERICENTER = 258.2422
MEAN_ANOMALY   = 101.3499

EPHEMERIS_TYPE = 0
CLASSIFICATION_TYPE = U
NORAD_CAT_ID   = 28059
ELEMENT_SET_NO = 999
REV_AT_EPOCH   = 18532
BSTAR          = .12045586E-3
MEAN_MOTION_DOT = .474E-5
MEAN_MOTION_DDOT = 0

CCSDS_OMM_VERS = 2.0
CREATION_DATE  = 
ORIGINATOR     = 

OBJECT_NAME    = CZ-2C R/B
OBJECT_ID      = 2004-012C
CENTER_NAME    = EARTH
REF_FRAME      = TEME
TIME_SYSTEM    = UTC
MEAN_ELEMENT_THEORY = SGP/SGP4

EPOCH          = 2026-02-28T17:09:55.533312
MEAN_MOTION    = 15.63325943
ECCENTRICITY   = .00136446
INCLINATION    = 97.7259
RA_OF_ASC_NODE = 124.1651
ARG_OF_PERICENTER = 346.2709
MEAN_ANOMALY   = 13.8176

EPHEMERIS_TYPE = 0
CLASSIFICATION_TYPE = U
NORAD_CAT_ID   = 28222
ELEMENT_SET_NO = 999
REV_AT_EPOCH   = 20287
BSTAR          = .59994321E-3
MEAN_MOTION_DOT = .55488E-3
MEAN_MOTION_DDOT = 0

CCSDS_OMM_VERS = 2.0
CREATION_DATE  = 
ORIGINATOR     = 

OBJECT_NAME    = SL-16 R/B
OBJECT_ID      = 2004-021B
CENTER_NAME    = EARTH
REF_FRAME      = TEME
TIME_SYSTEM    = UTC
MEAN_ELEMENT_THEORY = SGP/SGP4

EPOCH          = 2026-02-28T23:18:58.922784
MEAN_MOTION    = 14.14599755
ECCENTRICITY   = .00035792
INCLINATION    = 70.9991
RA_OF_ASC_NODE = 250.7893
ARG_OF_PERICENTER = 28.1552
MEAN_ANOMALY   = 331.9764

EPHEMERIS_TYPE = 0
CLASSIFICATION_TYPE = U
NORAD_CAT_ID   = 28353
ELEMENT_SET_NO = 999
REV_AT_EPOCH   = 12160
BSTAR          = .5273058E-5
MEAN_MOTION_DOT = -.38E-6
MEAN_MOTION_DDOT = 0

CCSDS_OMM_VERS = 2.0
CREATION_DATE  = 
ORIGINATOR     = 

OBJECT_NAME    = CZ-4B R/B
OBJECT_ID      = 2004-035C
CENTER_NAME    = EARTH
REF_FRAME      = TEME
TIME_SYSTEM    = UTC
MEAN_ELEMENT_THEORY = SGP/SGP4

EPOCH          = 2026-02-28T14:46:59.255040
MEAN_MOTION    = 15.28868978
ECCENTRICITY   = .00321406
INCLINATION    = 97.3518
RA_OF_ASC_NODE = 93.9684
ARG_OF_PERICENTER = 4.3166
MEAN_ANOMALY   = 355.8345

EPHEMERIS_TYPE = 0
CLASSIFICATION_TYPE = U
NORAD_CAT_ID   = 28415
ELEMENT_SET_NO = 999
REV_AT_EPOCH   = 17852
BSTAR          = .29875604E-3
MEAN_MOTION_DOT = .8434E-4
MEAN_MOTION_DDOT = 0

CCSDS_OMM_VERS = 2.0
CREATION_DATE  = 
ORIGINATOR     = 

OBJECT_NAME    = CZ-2C R/B
OBJECT_ID      = 2004-046B
CENTER_NAME    = EARTH
REF_FRAME      = TEME
TIME_SYSTEM    = UTC
MEAN_ELEMENT_THEORY = SGP/SGP4

EPOCH          = 2026-02-28T18:58:46.227648
MEAN_MOTION    = 14.26988776
ECCENTRICITY   = .01393534
INCLINATION    = 98.1989
RA_OF_ASC_NODE = 335.3281
ARG_OF_PERICENTER = 180.7044
MEAN_ANOMALY   = 179.3963

EPHEMERIS_TYPE = 0
CLASSIFICATION_TYPE = U
NORAD_CAT_ID   = 28480
ELEMENT_SET_NO = 999
REV_AT_EPOCH   = 10723
BSTAR          = .63332578E-4
MEAN_MOTION_DOT = .13E-5
MEAN_MOTION_DDOT = 0

CCSDS_OMM_VERS = 2.0
CREATION_DATE  = 
ORIGINATOR     = 

OBJECT_NAME    = ARIANE 5 R/B
OBJECT_ID      = 2004-049H
CENTER_NAME    = EARTH
REF_FRAME      = TEME
TIME_SYSTEM    = UTC
MEAN_ELEMENT_THEORY = SGP/SGP4

EPOCH          = 2026-02-28T22:36:38.691936
MEAN_MOTION    = 14.85246515
ECCENTRICITY   = .00845732
INCLINATION    = 98.2613
RA_OF_ASC_NODE = 228.0726
ARG_OF_PERICENTER = 20.2602
MEAN_ANOMALY   = 340.1934

EPHEMERIS_TYPE = 0
CLASSIFICATION_TYPE = U
NORAD_CAT_ID   = 28499
ELEMENT_SET_NO = 999
REV_AT_EPOCH   = 14449
BSTAR          = .1015612E-3
MEAN_MOTION_DOT = .864E-5
MEAN_MOTION_DDOT = 0

CCSDS_OMM_VERS = 2.0
CREATION_DATE  = 
ORIGINATOR     = 

OBJECT_NAME    = CZ-2D R/B
OBJECT_ID      = 2005-024B
CENTER_NAME    = EARTH
REF_FRAME      = TEME
TIME_SYSTEM    = UTC
MEAN_ELEMENT_THEORY = SGP/SGP4

EPOCH          = 2026-02-28T23:36:52.073856
MEAN_MOTION    = 15.59248972
ECCENTRICITY   = .00070481
INCLINATION    = 97.3604
RA_OF_ASC_NODE = 74.8167
ARG_OF_PERICENTER = 67.7327
MEAN_ANOMALY   = 292.4676

EPHEMERIS_TYPE = 0
CLASSIFICATION_TYPE = U
NORAD_CAT_ID   = 28738
ELEMENT_SET_NO = 999
REV_AT_EPOCH   = 13842
BSTAR          = .54815115E-3
MEAN_MOTION_DOT = .43129E-3
MEAN_MOTION_DDOT = 0

